[
    {
        "tags": {
            "amenity": "fire_station"
        },
        "id": "536393610",
        "lat": 55.0327613,
        "lon": 73.2722374,
        "version": 1
    },
    {
        "tags": {
            "name": "7 ПЧ 4 ОФПС",
            "amenity": "fire_station"
        },
        "id": "1083500500",
        "lat": 55.038002,
        "lon": 73.3237985,
        "version": 1
    },
    {
        "tags": {
            "amenity": "fire_station"
        },
        "id": "1202905191",
        "lat": 54.9421702,
        "lon": 73.4325009,
        "version": 1
    },
    {
        "tags": {
            "name": "Специализированная пожарно-спасательная часть ФПС по Омской области",
            "amenity": "fire_station"
        },
        "id": "1503824107",
        "lat": 54.9178892,
        "lon": 73.4585204,
        "version": 1
    },
    {
        "tags": {
            "amenity": "fire_station"
        },
        "id": "1669529308",
        "lat": 55.0231159,
        "lon": 73.383979,
        "version": 1
    },
    {
        "tags": {
            "name": "Омский учебный центр ФПС",
            "amenity": "fire_station"
        },
        "id": "1823532920",
        "lat": 55.0014281,
        "lon": 73.383836,
        "version": 1
    },
    {
        "tags": {
            "name": "1 пожарная часть",
            "amenity": "fire_station"
        },
        "id": "3524852775",
        "lat": 54.9788009,
        "lon": 73.3856042,
        "version": 1
    },
    {
        "tags": {
            "ref": "34",
            "amenity": "fire_station"
        },
        "id": "5353897457",
        "lat": 54.9979536,
        "lon": 73.4785607,
        "version": 1
    },
    {
        "tags": {
            "name": "Пожарный поезд ст. Комбинатская",
            "source": "http://npd-upss2.narod.ru/Reestr_Fed/070412.htm",
            "amenity": "fire_station",
            "operator": "ФГП «Ведомственная охрана железнодорожного транспорта Российской Федерации» (Западно-Сибирская железная дорога)",
            "addr:country": "RU",
            "fire_station:type": "vpo"
        },
        "id": "5654157884",
        "lat": 55.0624917,
        "lon": 73.2976056,
        "version": 1
    },
    {
        "tags": {
            "name": "Пожарный поезд ст. Омск-Пассажирский",
            "source": "http://npd-upss2.narod.ru/Reestr_Fed/070412.htm",
            "amenity": "fire_station",
            "operator": "ФГП «Ведомственная охрана железнодорожного транспорта Российской Федерации» (Западно-Сибирская железная дорога)",
            "addr:country": "RU",
            "fire_station:type": "vpo"
        },
        "id": "5654157885",
        "lat": 54.9388806,
        "lon": 73.3883139,
        "version": 1
    }
]
