[
    {
        "tags": {
            "name": "Городской клинический перинатальный центр",
            "amenity": "hospital"
        },
        "id": "496176426",
        "lat": 54.9792304,
        "lon": 73.4042384,
        "version": 1
    },
    {
        "tags": {
            "name": "Городская поликлиника №6",
            "amenity": "hospital",
            "alt_name": "Hospital #6"
        },
        "id": "574705224",
        "lat": 54.9969312,
        "lon": 73.263194,
        "version": 1
    },
    {
        "tags": {
            "amenity": "doctors"
        },
        "id": "928822236",
        "lat": 55.0269211,
        "lon": 73.2953684,
        "version": 1
    },
    {
        "tags": {
            "name": "Поликлиника. ФГУ Западно-Сибирский Медицинский Центр ФМБА России",
            "amenity": "hospital"
        },
        "id": "993403877",
        "lat": 55.0087681,
        "lon": 73.3415964,
        "version": 1
    },
    {
        "tags": {
            "name": "Омская центральная районная больница",
            "amenity": "hospital"
        },
        "id": "1083500609",
        "lat": 55.0376719,
        "lon": 73.3266533,
        "version": 1
    },
    {
        "tags": {
            "name": "Детская городская больница №4",
            "amenity": "hospital"
        },
        "id": "1170654926",
        "lat": 55.0269675,
        "lon": 73.4172557,
        "version": 1
    },
    {
        "tags": {
            "name": "Поликлиника №3 на станции Московка",
            "amenity": "hospital"
        },
        "id": "1187668213",
        "lat": 54.9274889,
        "lon": 73.4705159,
        "version": 1
    },
    {
        "tags": {
            "name": "Городская больница №2",
            "amenity": "clinic"
        },
        "id": "1195460350",
        "lat": 54.9571625,
        "lon": 73.4057164,
        "version": 1
    },
    {
        "tags": {
            "name": "Детская поликлиника №5",
            "amenity": "hospital"
        },
        "id": "1199849990",
        "lat": 54.9591278,
        "lon": 73.4125215,
        "version": 1
    },
    {
        "tags": {
            "name": "Д/П№5(филиал3)",
            "amenity": "hospital"
        },
        "id": "1199938577",
        "lat": 54.9500298,
        "lon": 73.418569,
        "version": 1
    },
    {
        "tags": {
            "name": "Ж/К№4",
            "amenity": "hospital"
        },
        "id": "1201196935",
        "lat": 54.9783978,
        "lon": 73.4648115,
        "version": 1
    },
    {
        "tags": {
            "name": "Детская поликлиника №5 (филиал 2)",
            "amenity": "clinic"
        },
        "id": "1201892219",
        "lat": 54.9759665,
        "lon": 73.4109102,
        "version": 1
    },
    {
        "tags": {
            "name": "МСЧ№11",
            "amenity": "hospital"
        },
        "id": "1208615740",
        "lat": 55.0142474,
        "lon": 73.4212112,
        "version": 1
    },
    {
        "tags": {
            "name": "Центр лабораторной диагностики Медакадемии",
            "amenity": "hospital"
        },
        "id": "1296113631",
        "lat": 54.9764532,
        "lon": 73.4063785,
        "version": 1
    },
    {
        "tags": {
            "name": "Областная детская клиническая больница. Консультативно-диагностическая поликлиника.",
            "amenity": "hospital"
        },
        "id": "1296113649",
        "lat": 54.9790343,
        "lon": 73.3987421,
        "version": 1
    },
    {
        "tags": {
            "name": "Инвитро",
            "amenity": "doctors",
            "website": "http://www.invitro.ru/",
            "healthcare": "laboratory",
            "description": "Независимая лаборатория, медицинские анализы",
            "healthcare:speciality": "biology"
        },
        "id": "1296231525",
        "lat": 54.9817793,
        "lon": 73.395375,
        "version": 1
    },
    {
        "tags": {
            "name": "Городская больница №9",
            "amenity": "hospital",
            "healthcare": "hospital"
        },
        "id": "1448225165",
        "lat": 54.9472085,
        "lon": 73.3366604,
        "version": 1
    },
    {
        "tags": {
            "ref": "6",
            "name": "Клинический родильный дом №6",
            "amenity": "hospital"
        },
        "id": "1460258723",
        "lat": 54.9945994,
        "lon": 73.2944632,
        "version": 1
    },
    {
        "tags": {
            "name": "Омская городская клиническая больница №1",
            "amenity": "hospital"
        },
        "id": "1460258726",
        "lat": 54.9960401,
        "lon": 73.2931275,
        "version": 1
    },
    {
        "tags": {
            "name": "БУЗОО \"Клинический кожно-венерологический диспансер\"",
            "amenity": "hospital"
        },
        "id": "1502867085",
        "lat": 54.9812038,
        "lon": 73.4036015,
        "version": 1
    },
    {
        "tags": {
            "name": "Поликлиника №10",
            "amenity": "doctors"
        },
        "id": "1502918675",
        "lat": 54.9112012,
        "lon": 73.4506583,
        "version": 1
    },
    {
        "tags": {
            "name": "Женская консультация",
            "amenity": "doctors"
        },
        "id": "1503783800",
        "lat": 54.9119461,
        "lon": 73.4474862,
        "version": 1
    },
    {
        "tags": {
            "name": "Детская поликлиника №7",
            "amenity": "clinic"
        },
        "id": "1609911627",
        "lat": 54.9716209,
        "lon": 73.4776138,
        "version": 1
    },
    {
        "tags": {
            "name": "Поликлиника, ОмГКБ №1",
            "amenity": "hospital"
        },
        "id": "1664246920",
        "lat": 54.9879809,
        "lon": 73.3215802,
        "version": 1
    },
    {
        "tags": {
            "name": "Центр психологии",
            "amenity": "doctors",
            "healthcare": "psychotherapist"
        },
        "id": "2076014841",
        "lat": 54.975097,
        "lon": 73.3989835,
        "version": 1
    },
    {
        "tags": {
            "name": "Детская городская поликлиника №1",
            "amenity": "doctors"
        },
        "id": "2103672859",
        "lat": 55.0471299,
        "lon": 73.2919409,
        "version": 1
    },
    {
        "tags": {
            "name": "Клинический кожно-венерологический диспансер",
            "amenity": "doctors"
        },
        "id": "2210846663",
        "lat": 54.9905626,
        "lon": 73.2613755,
        "version": 1
    },
    {
        "tags": {
            "name": "Омский областной наркологический диспансер",
            "amenity": "doctors"
        },
        "id": "2296917824",
        "lat": 54.9622111,
        "lon": 73.3949963,
        "version": 1
    },
    {
        "tags": {
            "name": "Клинический диагностический центр",
            "amenity": "clinic"
        },
        "id": "2321437591",
        "lat": 54.9793504,
        "lon": 73.3755025,
        "version": 1
    },
    {
        "tags": {
            "name": "Городская поликлиника №10",
            "amenity": "clinic"
        },
        "id": "2487588713",
        "lat": 54.9246307,
        "lon": 73.4679457,
        "version": 1
    },
    {
        "tags": {
            "name": "Детская поликлиника №4",
            "amenity": "clinic",
            "addr:street": "Мельничная улица",
            "addr:housenumber": "11"
        },
        "id": "2488924250",
        "lat": 54.9305104,
        "lon": 73.3236422,
        "version": 1
    },
    {
        "tags": {
            "name": "Поликлиника №9",
            "amenity": "clinic"
        },
        "id": "2565850376",
        "lat": 54.9308968,
        "lon": 73.3742047,
        "version": 1
    },
    {
        "tags": {
            "amenity": "clinic"
        },
        "id": "2583166436",
        "lat": 54.9516659,
        "lon": 73.3835776,
        "version": 1
    },
    {
        "tags": {
            "name": "Поликлиника №2",
            "amenity": "clinic"
        },
        "id": "2988959921",
        "lat": 54.952658,
        "lon": 73.3804354,
        "version": 1
    },
    {
        "tags": {
            "name": "Поликлиника №1",
            "amenity": "clinic"
        },
        "id": "3015644536",
        "lat": 54.9851251,
        "lon": 73.3737297,
        "version": 1
    },
    {
        "tags": {
            "name": "ИнтерВзгляд",
            "email": "ivzreg@mail.ru",
            "phone": "+73812665555",
            "amenity": "clinic",
            "website": "http://интервзгляд.рф/",
            "addr:street": "улица Лермонтова",
            "opening_hours": "Mo-Fr 09:00-18:00; Sa 09:00-15:00",
            "addr:housenumber": "77"
        },
        "id": "3016666184",
        "lat": 54.9835894,
        "lon": 73.3983934,
        "version": 1
    },
    {
        "tags": {
            "name": "Отделение №2 поликлиники №15",
            "amenity": "clinic"
        },
        "id": "3045090088",
        "lat": 54.9602761,
        "lon": 73.379985,
        "version": 1
    },
    {
        "tags": {
            "name": "Детская поликлиника №8",
            "amenity": "clinic"
        },
        "id": "3045090089",
        "lat": 54.9598769,
        "lon": 73.3799563,
        "version": 1
    },
    {
        "tags": {
            "name": "Доктор САШ",
            "amenity": "clinic"
        },
        "id": "3092176963",
        "lat": 54.9944207,
        "lon": 73.3791844,
        "version": 1
    },
    {
        "tags": {
            "name": "Евромед",
            "amenity": "clinic",
            "name:en": "Euromed"
        },
        "id": "3092176964",
        "lat": 55.004732,
        "lon": 73.3373797,
        "version": 1
    },
    {
        "tags": {
            "name": "Детская городская поликлиника №6",
            "amenity": "clinic"
        },
        "id": "3106321014",
        "lat": 54.9428188,
        "lon": 73.3839702,
        "version": 1
    },
    {
        "tags": {
            "ref": "11",
            "name": "Детская поликлиника №11 (филиал)",
            "amenity": "clinic"
        },
        "id": "3124193009",
        "lat": 55.0285965,
        "lon": 73.2995298,
        "version": 1
    },
    {
        "tags": {
            "name": "Поликлиника №4",
            "amenity": "doctors"
        },
        "id": "3124193011",
        "lat": 55.0279797,
        "lon": 73.2933649,
        "version": 1
    },
    {
        "tags": {
            "name": "УЗИ-Диагностика",
            "amenity": "doctors"
        },
        "id": "3174829592",
        "lat": 54.9969587,
        "lon": 73.3557128,
        "version": 1
    },
    {
        "tags": {
            "name": "Детская городская поликлиника №7",
            "amenity": "clinic"
        },
        "id": "3259274701",
        "lat": 54.9588573,
        "lon": 73.4508739,
        "version": 1
    },
    {
        "tags": {
            "name": "Ультрамед",
            "amenity": "clinic",
            "opening_hours": "Mo-Sa 08:00-20:00; Su 08:00-16:00"
        },
        "id": "3647548357",
        "lat": 54.9788231,
        "lon": 73.3834577,
        "version": 1
    },
    {
        "tags": {
            "name": "Гинекология",
            "amenity": "doctors",
            "health_specialty:gynaecology": "yes"
        },
        "id": "3905293750",
        "lat": 54.9709319,
        "lon": 73.3986638,
        "version": 1
    },
    {
        "tags": {
            "fee": "yes",
            "name": "Моя клиника",
            "amenity": "doctors"
        },
        "id": "3931749428",
        "lat": 55.0304623,
        "lon": 73.2785016,
        "version": 1
    },
    {
        "tags": {
            "name": "Авиценна",
            "amenity": "doctors"
        },
        "id": "4019343851",
        "lat": 55.0268298,
        "lon": 73.28339,
        "version": 1
    },
    {
        "tags": {
            "name": "Профи-Мед",
            "amenity": "doctors"
        },
        "id": "4020087675",
        "lat": 54.9975308,
        "lon": 73.3731883,
        "version": 1
    },
    {
        "tags": {
            "fee": "yes",
            "name": "Центр доктора Шеремета",
            "amenity": "doctors"
        },
        "id": "4047550777",
        "lat": 55.0282362,
        "lon": 73.277428,
        "version": 1
    },
    {
        "tags": {
            "name": "Аполлон",
            "amenity": "doctors"
        },
        "id": "4092368909",
        "lat": 54.9965485,
        "lon": 73.3581807,
        "version": 1
    },
    {
        "tags": {
            "name": "Ультрамед",
            "amenity": "clinic"
        },
        "id": "4092590388",
        "lat": 54.9841368,
        "lon": 73.3767223,
        "version": 1
    },
    {
        "tags": {
            "name": "Новая клиника",
            "amenity": "doctors"
        },
        "id": "4111767005",
        "lat": 55.0058095,
        "lon": 73.3472168,
        "version": 1
    },
    {
        "tags": {
            "name": "Боттичелли",
            "amenity": "doctors"
        },
        "id": "4161293889",
        "lat": 54.9608322,
        "lon": 73.3866113,
        "version": 1
    },
    {
        "tags": {
            "name": "Линлайн",
            "phone": "+7 800 700-79-11;+7 381 292-10-00",
            "amenity": "doctors",
            "website": "https://www.linline-clinic.ru/",
            "healthcare": "doctor",
            "opening_hours": "Mo-Su 09:00-21:00"
        },
        "id": "4161293902",
        "lat": 54.9544672,
        "lon": 73.3873044,
        "version": 1
    },
    {
        "tags": {
            "name": "Евромед",
            "amenity": "clinic"
        },
        "id": "4174380486",
        "lat": 55.0076196,
        "lon": 73.3358322,
        "version": 1
    },
    {
        "tags": {
            "name": "Ультрамед",
            "amenity": "clinic"
        },
        "id": "4189288548",
        "lat": 54.9732118,
        "lon": 73.3772332,
        "version": 1
    },
    {
        "tags": {
            "ref": "2",
            "name": "Городская поликлиника №2",
            "amenity": "clinic"
        },
        "id": "4201634536",
        "lat": 55.00205,
        "lon": 73.455568,
        "version": 1
    },
    {
        "tags": {
            "name": "ЛОР-клиника",
            "amenity": "doctors",
            "alt_name": "Многопрофильный центр слуха и речи",
            "int_name": "ENT Clinic \"Comprehensive Hearing and Speech Center\"",
            "emergency": "no",
            "health_specialty:otolaryngology": "yes"
        },
        "id": "4208923513",
        "lat": 54.972989,
        "lon": 73.4063575,
        "version": 1
    },
    {
        "tags": {
            "name": "Ангио центр",
            "amenity": "doctors"
        },
        "id": "4219992639",
        "lat": 54.9730002,
        "lon": 73.3925987,
        "version": 1
    },
    {
        "tags": {
            "name": "АртМед",
            "amenity": "clinic"
        },
        "id": "4239998104",
        "lat": 54.9851288,
        "lon": 73.3923972,
        "version": 1
    },
    {
        "tags": {
            "name": "Детская больница №3, инфекционный стационар",
            "amenity": "hospital",
            "provided_for:adult": "no",
            "provided_for:child": "yes"
        },
        "id": "4264243305",
        "lat": 55.0345678,
        "lon": 73.2756431,
        "version": 1
    },
    {
        "tags": {
            "name": "Детская больница №3, хирургический стационар",
            "amenity": "hospital",
            "provided_for:adult": "no",
            "provided_for:child": "yes"
        },
        "id": "4264243306",
        "lat": 55.0351415,
        "lon": 73.2775914,
        "version": 1
    },
    {
        "tags": {
            "name": "Детский травмпункт",
            "amenity": "doctors",
            "emergency": "yes",
            "provided_for:adult": "no",
            "provided_for:child": "yes"
        },
        "id": "4264243307",
        "lat": 55.0341041,
        "lon": 73.2774821,
        "version": 1
    },
    {
        "tags": {
            "name": "Женская консультация №1 роддома №2",
            "amenity": "clinic"
        },
        "id": "4264243308",
        "lat": 55.0346122,
        "lon": 73.2801898,
        "version": 1
    },
    {
        "tags": {
            "name": "Поликлиника городской больницы №3",
            "amenity": "clinic"
        },
        "id": "4264243314",
        "lat": 55.0355037,
        "lon": 73.2799379,
        "version": 1
    },
    {
        "tags": {
            "name": "Поликлиника №1 детской городской больницы №3",
            "amenity": "clinic",
            "provided_for:adult": "no",
            "provided_for:child": "yes"
        },
        "id": "4264243315",
        "lat": 55.034043,
        "lon": 73.277603,
        "version": 1
    },
    {
        "tags": {
            "name": "Родильный дом №2",
            "amenity": "hospital"
        },
        "id": "4264243317",
        "lat": 55.0360931,
        "lon": 73.2791301,
        "version": 1
    },
    {
        "tags": {
            "name": "Травмпункт",
            "amenity": "doctors",
            "emergency": "yes",
            "provided_for:adult": "yes",
            "provided_for:child": "no"
        },
        "id": "4264243318",
        "lat": 55.0356445,
        "lon": 73.2798292,
        "version": 1
    },
    {
        "tags": {
            "name": "Emerald",
            "amenity": "doctors",
            "health_specialty:dermatology": "yes"
        },
        "id": "4293130360",
        "lat": 54.9750024,
        "lon": 73.3865815,
        "version": 1
    },
    {
        "tags": {
            "amenity": "clinic"
        },
        "id": "4368264492",
        "lat": 54.942894,
        "lon": 73.3929913,
        "version": 1
    },
    {
        "tags": {
            "name": "Клинический медико-хирургический центр",
            "email": "info@clinica-omsk.ru",
            "phone": "83812255439",
            "amenity": "hospital",
            "website": "http://clinica-omsk.ru",
            "addr:street": "улица Булатова",
            "addr:postcode": "644007",
            "opening_hours": "24/7",
            "internet_access": "wlan",
            "addr:housenumber": "105"
        },
        "id": "4423439390",
        "lat": 54.9948596,
        "lon": 73.3809299,
        "version": 1
    },
    {
        "tags": {
            "name": "Поликлиника 13",
            "amenity": "clinic",
            "name:ru": "Поликлиника 13",
            "opening_hours": "Mo-Fr 08:00-20:00"
        },
        "id": "4560969889",
        "lat": 55.026881,
        "lon": 73.3639254,
        "version": 1
    },
    {
        "tags": {
            "name": "Центр доктора Бубновского",
            "amenity": "doctors"
        },
        "id": "4582999771",
        "lat": 55.0016056,
        "lon": 73.3520977,
        "version": 1
    },
    {
        "tags": {
            "name": "Городская поликлиника №8",
            "amenity": "clinic"
        },
        "id": "4746245542",
        "lat": 55.0214449,
        "lon": 73.412857,
        "version": 1
    },
    {
        "tags": {
            "name": "Золотая лилия",
            "amenity": "doctors"
        },
        "id": "4751207578",
        "lat": 54.9749332,
        "lon": 73.4067023,
        "version": 1
    },
    {
        "tags": {
            "name": "Городская поликлиника №15",
            "amenity": "clinic"
        },
        "id": "4784526802",
        "lat": 54.9684928,
        "lon": 73.3872161,
        "version": 1
    },
    {
        "tags": {
            "name": "Первая социальная клиника",
            "amenity": "doctors",
            "name:ru": "Первая социальная клиника",
            "opening_hours": "Mo-Fr 10:00-18:00; Sa 10:00-13:00"
        },
        "id": "4877025321",
        "lat": 55.0274639,
        "lon": 73.2602028,
        "version": 1
    },
    {
        "tags": {
            "name": "Консультативно-диагностическая поликлиника",
            "amenity": "clinic",
            "contact:phone": "+7 381 2363634",
            "opening_hours": "Mo-Fr 08:30-16:00"
        },
        "id": "4918261639",
        "lat": 54.979156,
        "lon": 73.4036989,
        "version": 1
    },
    {
        "tags": {
            "fee": "yes",
            "name": "До 16-ти",
            "amenity": "clinic",
            "massage": "yes",
            "healthcare": "centre",
            "treat:inpatient": "no",
            "provided_for:adult": "no",
            "provided_for:child": "yes",
            "health_service:test": "yes",
            "health_specialty:surgery": "yes",
            "health_specialty:urology": "yes",
            "health_service:counselling": "yes",
            "health_service:examination": "yes",
            "health_specialty:dentistry": "yes",
            "health_specialty:neurology": "yes",
            "health_specialty:cardiology": "yes",
            "health_specialty:nephrology": "yes",
            "health_specialty:gynaecology": "yes",
            "health_specialty:paediatrics": "yes",
            "health_specialty:pulmonology": "yes",
            "health_specialty:biochemistry": "yes",
            "health_specialty:orthopaedics": "yes",
            "health_specialty:endocrinology": "yes",
            "health_specialty:ophthalmology": "yes",
            "health_specialty:physiotherapy": "yes",
            "health_specialty:otolaryngology": "yes",
            "health_specialty:speech_therapy": "yes",
            "health_specialty:child_psychiatry": "yes",
            "health_specialty:gastroenterology": "yes",
            "health_specialty:internal_medicine": "yes"
        },
        "id": "4973404087",
        "lat": 55.0017013,
        "lon": 73.3521509,
        "version": 1
    },
    {
        "tags": {
            "name": "Поликлиника МСЧ №7",
            "amenity": "clinic"
        },
        "id": "4999064492",
        "lat": 55.0325936,
        "lon": 73.2219566,
        "version": 1
    },
    {
        "tags": {
            "name": "Городская больница №3, стационар",
            "amenity": "hospital"
        },
        "id": "5048963898",
        "lat": 55.0281636,
        "lon": 73.2748604,
        "version": 1
    },
    {
        "tags": {
            "fee": "yes",
            "name": "Ультрамед",
            "amenity": "clinic",
            "internet_access": "wlan",
            "provided_for:adult": "no",
            "provided_for:child": "yes"
        },
        "id": "5152371724",
        "lat": 54.9742536,
        "lon": 73.3767795,
        "version": 1
    },
    {
        "tags": {
            "name": "Центр здоровья поликлиники № 4",
            "amenity": "doctors"
        },
        "id": "5153260965",
        "lat": 55.0410793,
        "lon": 73.2933552,
        "version": 1
    },
    {
        "tags": {
            "name": "Врачебно-косметологическая лечебница",
            "amenity": "clinic",
            "health_specialty:dermatology": "yes"
        },
        "id": "5350854860",
        "lat": 54.9479855,
        "lon": 73.3782757,
        "version": 1
    },
    {
        "tags": {
            "name": "Академия здоровья",
            "amenity": "clinic"
        },
        "id": "5383412637",
        "lat": 54.9927634,
        "lon": 73.2929364,
        "version": 1
    },
    {
        "tags": {
            "amenity": "doctors"
        },
        "id": "5383412647",
        "lat": 54.9924233,
        "lon": 73.2720458,
        "version": 1
    },
    {
        "tags": {
            "name": "Детская поликлиника №4",
            "amenity": "clinic",
            "healthcare": "clinic",
            "addr:street": "улица 12 Декабря",
            "addr:housenumber": "106"
        },
        "id": "5400978123",
        "lat": 54.9510132,
        "lon": 73.3315326,
        "version": 1
    },
    {
        "tags": {
            "name": "Женская консультация, ГБ№9",
            "amenity": "hospital",
            "healthcare": "hospital",
            "addr:street": "улица 12 Декабря",
            "addr:housenumber": "102"
        },
        "id": "5400978129",
        "lat": 54.9491124,
        "lon": 73.3329917,
        "version": 1
    },
    {
        "tags": {
            "name": "Стоматологическая поликлиника, Городская больница №9",
            "amenity": "hospital",
            "healthcare": "hospital",
            "addr:street": "Мельничная улица",
            "addr:housenumber": "71"
        },
        "id": "5482417721",
        "lat": 54.9178926,
        "lon": 73.3181335,
        "version": 1
    },
    {
        "tags": {
            "name": "Поликлиника, ГБ №9",
            "amenity": "clinic",
            "healthcare": "clinic",
            "addr:street": "Мельничная улица",
            "addr:housenumber": "92"
        },
        "id": "5487724215",
        "lat": 54.9158339,
        "lon": 73.3148069,
        "version": 1
    },
    {
        "tags": {
            "name": "СитиМед",
            "phone": "483838",
            "amenity": "clinic",
            "name:en": "CityMed",
            "website": "http://citymed55.ru"
        },
        "id": "5510553321",
        "lat": 54.9494767,
        "lon": 73.3900817,
        "version": 1
    },
    {
        "tags": {
            "name": "МаксиМед",
            "amenity": "clinic"
        },
        "id": "5908479087",
        "lat": 54.9802181,
        "lon": 73.2987669,
        "version": 1
    },
    {
        "tags": {
            "name": "Варикоза Нет",
            "amenity": "clinic",
            "opening_hours": "Mo-Su 08:00-20:00"
        },
        "id": "5999894487",
        "lat": 54.9879458,
        "lon": 73.3970161,
        "version": 1
    },
    {
        "tags": {
            "name": "Омская областная клиническая больница",
            "amenity": "hospital"
        },
        "id": "6006723760",
        "lat": 55.0213924,
        "lon": 73.3405638,
        "version": 1
    },
    {
        "tags": {
            "name": "Центр медосмотров Евромед",
            "amenity": "clinic"
        },
        "id": "6445837578",
        "lat": 54.9767194,
        "lon": 73.3821201,
        "version": 1
    },
    {
        "tags": {
            "name": "Фомальгаут",
            "amenity": "doctors"
        },
        "id": "6541875549",
        "lat": 54.9632361,
        "lon": 73.3890206,
        "version": 1
    },
    {
        "tags": {
            "name": "ООО «Медицинский центр «Гирутек»",
            "email": "info@girutek.ru",
            "phone": "+73812790599",
            "amenity": "clinic",
            "name:en": "Polyclinic “Girutek”",
            "website": "https://girutek.ru",
            "addr:postcode": "644012",
            "opening_hours": "Mo-Fr 08:00-18:00; Sa 08:00-16:00",
            "internet_access": "wlan",
            "addr:housenumber": "7 пом2П"
        },
        "id": "6725825186",
        "lat": 55.0343061,
        "lon": 73.3320301,
        "version": 1
    },
    {
        "tags": {
            "name": "ООО «Медицинский центр «Гирутек»",
            "email": "info@girutek.ru",
            "phone": "+73812790599",
            "amenity": "clinic",
            "name:en": "Polyclinic “Girutek”",
            "website": "https://girutek.ru",
            "addr:postcode": "644106",
            "opening_hours": "Mo-Fr 07:30-19:00; Sa 07:30-16:00; Su 09:00-12:30",
            "internet_access": "wlan",
            "addr:housenumber": "8 пом8П"
        },
        "id": "6725825187",
        "lat": 54.9944212,
        "lon": 73.258894,
        "version": 1
    },
    {
        "tags": {
            "name": "Детская поликлиника №3",
            "amenity": "clinic"
        },
        "id": "6945562506",
        "lat": 55.0536243,
        "lon": 73.3106625,
        "version": 1
    }
]
