[
    {
        "nodes": "[485568018, 485568019, 485568020, 2857445853, 2857445852, 485568021, 485568018]",
        "building": "yes",
        "geometry": "POLYGON ((73.4122844 54.9569304, 73.412847 54.9569534, 73.4128657 54.9568027, 73.4124747 54.9567867, 73.4123658 54.9567822, 73.4123031 54.9567796, 73.4122844 54.9569304))",
        "addr:housenumber": "4",
        "addr:street": "3-я Транспортная улица",
        "amenity": "fire_station",
        "id": "40263631"
    },
    {
        "nodes": "[2075962346, 2075962349, 2075962348, 2075962347, 2075962342, 2075962343, 2075962341, 5653822998, 2075962340, 2075962346]",
        "building": "yes",
        "geometry": "POLYGON ((73.28325169999999 54.9841913, 73.28348819999999 54.9843504, 73.28365789999999 54.9842673, 73.2835991 54.9842277, 73.2840037 54.9840297, 73.2840533 54.9840631, 73.2842192 54.9839819, 73.2842053 54.9839715, 73.283992 54.9838291, 73.28325169999999 54.9841913))",
        "addr:housenumber": "15",
        "addr:street": "улица Ватутина",
        "building:levels": "4",
        "amenity": "fire_station",
        "id": "50333544"
    },
    {
        "nodes": "[1901737491, 713243995, 713243765, 713244128, 713243884, 713243898, 1901737491]",
        "building": "garage",
        "geometry": "POLYGON ((73.3853769 54.9788561, 73.3844555 54.9787898, 73.3844917 54.9786243, 73.3848698 54.9786515, 73.38488340000001 54.9785891, 73.3854267 54.9786282, 73.3853769 54.9788561))",
        "amenity": "fire_station",
        "id": "57375668"
    },
    {
        "nodes": "[794163212, 794162928, 794162713, 794162586, 794163212]",
        "building": "yes",
        "name": "Управление противопожарной службы Омской области",
        "geometry": "POLYGON ((73.3284633 54.9363316, 73.32871539999999 54.9363191, 73.3286588 54.9359412, 73.32840659999999 54.9359537, 73.3284633 54.9363316))",
        "addr:housenumber": "4",
        "addr:street": "Севастопольская улица",
        "amenity": "fire_station",
        "id": "64702329"
    },
    {
        "nodes": "[485549813, 616707321, 616707300, 873829619, 616707299, 616707303, 1780090249, 1780090250, 616707307, 616707298, 1780090251, 616707304, 616707306, 616707322, 485549811, 873829685, 485549813]",
        "building": "yes",
        "name": "ПЧ 10",
        "geometry": "POLYGON ((73.4150874 54.9620829, 73.4151571 54.9620853, 73.4152065 54.9616166, 73.4152448 54.9616179, 73.4152508 54.9615607, 73.4149013 54.9615486, 73.4148943 54.9616153, 73.4149334 54.9616166, 73.41493149999999 54.9616344, 73.41491619999999 54.9617799, 73.41489730000001 54.9617792, 73.41489079999999 54.9618411, 73.41490570000001 54.9618416, 73.41488870000001 54.9620029, 73.4148675 54.9620022, 73.4148598 54.962075, 73.4150874 54.9620829))",
        "addr:housenumber": "281",
        "addr:street": "улица Богдана Хмельницкого",
        "amenity": "fire_station",
        "id": "73848134"
    },
    {
        "nodes": "[986316677, 986316105, 986316547, 986316391, 986316677]",
        "building": "yes",
        "name": "Пожарная часть ОАО Омский каучук",
        "geometry": "POLYGON ((73.2961938 55.070095, 73.29689980000001 55.07027, 73.2970005 55.0701368, 73.2962945 55.0699618, 73.2961938 55.070095))",
        "addr:housenumber": "32",
        "addr:street": "проспект Губкина",
        "amenity": "fire_station",
        "id": "84973679"
    },
    {
        "nodes": "[1118316732, 1118315752, 1118314581, 1118315222, 1934643168, 1934643176, 1934643177, 1934643174, 1118316732]",
        "building": "yes",
        "geometry": "POLYGON ((73.2135085 55.179436, 73.2133862 55.1791632, 73.2136478 55.179125, 73.2137701 55.1793978, 73.2137094 55.1794067, 73.2137244 55.17944, 73.2136197 55.1794553, 73.2136047 55.1794219, 73.2135085 55.179436))",
        "addr:housenumber": "1А к1",
        "addr:street": "Иртышская улица",
        "amenity": "fire_station",
        "id": "96534344"
    }
]
